SCD 1                   
1 22490U 93009B   26179.96351939  .00000391  00000+0  55735-4 0  9999
2 22490  24.9683 134.8620 0041637 262.5652 148.5955 14.46122970762822
TECHSAT 1B (GO-32)      
1 25397U 98043D   26179.93544826  .00000052  00000+0  42491-4 0  9996
2 25397  99.0072 172.9906 0001643 141.4030 218.7265 14.24430601453004
SCD 2                   
1 25504U 98060A   26179.82577831  .00000369  00000+0  52139-4 0  9996
2 25504  24.9967   0.3849 0016551 245.9046 136.6933 14.45529945462019
DLR-TUBSAT              
1 25757U 99029B   26179.93587082  .00000086  00000+0  32960-4 0  9999
2 25757  98.6700 175.8265 0013400 318.2229  41.7942 14.52429608434950
TERRA                   
1 25994U 99068A   26179.94125439  .00000368  00000+0  83955-4 0  9993
2 25994  97.9451 229.0212 0002489 156.9544 305.3307 14.61111903411320
MAROC-TUBSAT            
1 27004U 01056D   26179.92399993 -.00000023  00000+0  26912-4 0  9992
2 27004  99.8087 357.0050 0020578 112.1637  48.8926 13.70262957227795
AQUA                    
1 27424U 02022A   26179.88667149  .00000734  00000+0  15563-3 0  9995
2 27424  98.4282 149.4036 0000724  68.5145 319.7656 14.62174961284982
SHIYAN-1 (SY-1)         
1 28220U 04012A   26179.79547273  .00012463  00000+0  38059-3 0  9993
2 28220  97.8696 258.6195 0004604 350.1825   9.9326 15.34050733212875
AURA                    
1 28376U 04026A   26179.90005709  .00000742  00000+0  15995-3 0  9997
2 28376  98.3422 136.4506 0001155  83.5501 276.5831 14.61345883167925
IRS-P5 (CARTOSAT-1)     
1 28649U 05017A   26179.62086230  .00001418  00000+0  14844-3 0  9991
2 28649  97.5305 202.1667 0002231  66.0284 294.1168 14.91077935145522
SINAH 1                 
1 28893U 05043D   26179.94516553  .00000313  00000+0  68787-4 0  9991
2 28893  98.2874 314.3372 0013371 236.5149 123.4776 14.64165318102246
RESURS-DK 1             
1 29228U 06021A   26179.80157566  .00002072  00000+0  12231-3 0  9997
2 29228  69.9339 309.4882 0006717 286.1035  73.9391 15.13263406104338
ARIRANG-2 (KOMPSAT-2)   
1 29268U 06031A   26179.99204961  .00000704  00000+0  14063-3 0  9999
2 29268  97.8305   3.8678 0015525  40.3521 111.0589 14.64668600 63203
LAPAN-TUBSAT            
1 29709U 07001A   26179.97113102  .00000946  00000+0  11485-3 0  9994
2 29709  98.1341 179.4607 0012932 141.6975 218.5161 14.85964036 52905
HAIYANG-1B              
1 31113U 07010A   26179.89139204  .00000085  00000+0  48004-4 0  9990
2 31113  98.3499 161.2829 0013804 161.5136 198.6552 14.31029689  2316
COSMO-SKYMED 1          
1 31598U 07023A   26179.96496241  .00002184  00000+0  19422-3 0  9999
2 31598  97.8858  11.9202 0001675  86.5600 273.5813 14.97161713 31555
TERRASAR-X              
1 31698U 07026A   26179.52106925  .00000485  00000+0  26294-4 0  9990
2 31698  97.4454 187.0670 0001870  88.3439 271.8010 15.19148456 54947
WORLDVIEW-1 (WV-1)      
1 32060U 07041A   26179.91121633  .00005332  00000+0  22050-3 0  9998
2 32060  97.3890 299.4873 0001183 331.1223  28.9949 15.24391970 44661
YAOGAN-3                
1 32289U 07055A   26180.00748237  .00001187  00000+0  12628-3 0  9997
2 32289  97.8150 209.7680 0001683  78.2143 281.9264 14.90822128  7636
COSMO-SKYMED 2          
1 32376U 07059A   26179.90787506  .00000385  00000+0  54940-4 0  9990
2 32376  97.8887   3.3358 0001329  89.9184 270.2182 14.82154487  3746
RADARSAT-2              
1 32382U 07061A   26180.00282740 -.00000142  00000+0 -38036-4 0  9994
2 32382  98.5775 186.7662 0001294  85.4368 274.6962 14.29983565967647
CARTOSAT-2A             
1 32783U 08021A   26179.95174223  .00000516  00000+0  76073-4 0  9990
2 32783  97.7633 228.2584 0013305  74.7727 285.4955 14.79254620980541
HUANJING 1A (HJ-1A)     
1 33320U 08041A   26179.96605628  .00000779  00000+0  99373-4 0  9998
2 33320  97.6680 165.3487 0020554  98.6985 261.6560 14.84011184960153
HUANJING 1B (HJ-1B)     
1 33321U 08041B   26179.94050434  .00001325  00000+0  16605-3 0  9990
2 33321  97.6517 168.4604 0037150 142.6604 217.7203 14.83338721960150
GEOEYE 1                
1 33331U 08042A   26179.90189871  .00000438  00000+0  91360-4 0  9992
2 33331  98.1335 253.6879 0005132  36.0931 324.0617 14.64636269951866
THEOS                   
1 33396U 08049A   26179.94634270 -.00000344  00000+0 -14131-3 0  9990
2 33396  98.5572 236.8480 0001174  81.4737 278.6573 14.20133042919632
COSMO-SKYMED 3          
1 33412U 08054A   26179.96223338  .00006909  00000+0  46424-3 0  9997
2 33412  97.8266  38.7288 0014671 223.2776 136.7300 15.07024057958718
YAOGAN-4                
1 33446U 08061A   26179.70317323  .00000979  00000+0  12627-3 0  9991
2 33446  97.9307 113.1285 0015207  38.1267 322.1020 14.83221811947371
GOSAT (IBUKI)           
1 33492U 09002A   26179.79750517 -.00000058  00000+0 -17705-5 0  9997
2 33492  98.0905 290.7340 0001217  77.7926 282.3415 14.67537027933167
DEIMOS-1                
1 35681U 09041A   26179.92040134  .00000268  00000+0  46620-4 0  9992
2 35681  97.7407 336.6398 0002307 115.1342 245.0107 14.75248015908616
